NORAD_CAT_ID,OBJECT_NAME,OBJECT_TYPE,EPOCH,MEAN_MOTION,ECCENTRICITY,INCLINATION,RA_OF_ASC_NODE,ARG_OF_PERICENTER,MEAN_ANOMALY,BSTAR,MEAN_MOTION_DOT,MEAN_MOTION_DDOT,TLE_LINE0,TLE_LINE1,TLE_LINE2,SEMIMAJOR_AXIS,PERIOD,APOGEE,PERIGEE,DECAYED
53137.0,STARLINK-4145,PAYLOAD,2022-10-10 22:00:01,15.08930706,0.0002133,53.2177,6.6149,35.8848,87.8763,-0.018599,-0.0028548,0.0,0 STARLINK-4145,1 53137U 22083F   22283.91668981 -.00285480  00000-0 -18599-1 0  9991,2 53137  53.2177   6.6149 0002133  35.8848  87.8763 15.08930706  1309,6917.603,95.432,540.944,537.993,0.0
53137.0,STARLINK-4145,PAYLOAD,2022-10-11 06:00:00,15.08832345,0.0002015,53.2184,5.1264,38.2648,96.9363,-0.00051061,-8.404e-05,0.0,0 STARLINK-4145,1 53137U 22083F   22284.25001157 -.00008404  00000-0 -51061-3 0  9997,2 53137  53.2184   5.1264 0002015  38.2648  96.9363 15.08832345 13820,6917.904,95.438,541.163,538.375,0.0
53137.0,STARLINK-4145,PAYLOAD,2022-10-11 14:00:01,15.08813841,0.0002099,53.2176,3.6176,31.0,115.8268,0.0022294,0.00035346,0.0,0 STARLINK-4145,1 53137U 22083F   22284.58334491  .00035346  00000-0  22294-2 0  9991,2 53137  53.2176   3.6176 0002099  31.0000 115.8268 15.08813841  1306,6917.96,95.439,541.2769999999998,538.373,0.0
53137.0,STARLINK-4145,PAYLOAD,2022-10-11 22:00:00,15.08846937,0.0002126999999999,53.2186,2.1348,36.332,122.0183,-0.0012443,-0.00020041,0.0,0 STARLINK-4145,1 53137U 22083F   22284.91667824 -.00020041  00000-0 -12443-2 0  9990,2 53137  53.2186   2.1348 0002127  36.3320 122.0183 15.08846937  1305,6917.859,95.437,541.196,538.253,0.0
53137.0,STARLINK-4145,PAYLOAD,2022-10-12 06:00:00,15.08839091,0.0002085,53.2189,0.6372,38.8626,131.0859,0.00084261,0.00013147,0.0,0 STARLINK-4145,1 53137U 22083F   22285.25001157  .00013147  00000-0  84261-3 0  9994,2 53137  53.2189   0.6372 0002085  38.8626 131.0859 15.08839091 13976,6917.8830000000025,95.438,541.191,538.306,0.0
53137.0,STARLINK-4145,PAYLOAD,2022-10-12 14:00:01,15.08826467,0.0002182,53.2181,359.1353,35.7136,145.8427,0.0035224,0.00056198,0.0,0 STARLINK-4145,1 53137U 22083F   22285.58334491  .00056198  00000-0  35224-2 0  9997,2 53137  53.2181 359.1353 0002182  35.7136 145.8427 15.08826467  1300,6917.922,95.438,541.2959999999998,538.2769999999998,0.0
53137.0,STARLINK-4145,PAYLOAD,2022-10-12 22:00:00,15.08884133,0.0001818,53.2177,357.6315,39.0131,154.1463,-0.0045368,-0.00071859,0.0,0 STARLINK-4145,1 53137U 22083F   22285.91667824 -.00071859  00000-0 -45368-2 0  9996,2 53137  53.2177 357.6315 0001818  39.0131 154.1463 15.08884133  1300,6917.745,95.435,540.868,538.3530000000002,0.0
53137.0,STARLINK-4145,PAYLOAD,2022-10-13 06:00:00,15.08843728,0.0002077,53.2183,356.1415,36.0879,168.6329,0.0015302999999999,0.00024153,0.0,0 STARLINK-4145,1 53137U 22083F   22286.25001157  .00024153  00000-0  15303-2 0  9994,2 53137  53.2183 356.1415 0002077  36.0879 168.6329 15.08843728 14126,6917.869000000002,95.437,541.1709999999998,538.297,0.0
53137.0,STARLINK-4145,PAYLOAD,2022-10-13 14:00:01,15.08906943,0.0002298,53.2179,354.6413,31.2667,185.0562,-0.0059286,-0.00093594,0.0,0 STARLINK-4145,1 53137U 22083F   22286.58334491 -.00093594  00000-0 -59286-2 0  9995,2 53137  53.2179 354.6413 0002298  31.2667 185.0562 15.08906943  1306,6917.676,95.433,541.13,537.951,0.0
53137.0,STARLINK-4145,PAYLOAD,2022-10-13 20:00:01,15.08836208,0.0002275,53.2172,353.5134,28.2141,106.914,4.9728e-05,5.03e-06,0.0,0 STARLINK-4145,1 53137U 22083F   22286.83335648  .00000503  00000-0  49728-4 0  9996,2 53137  53.2172 353.5134 0002275  28.2141 106.9140 15.08836208 14219,6917.892,95.438,541.331,538.183,0.0
53137.0,STARLINK-4145,PAYLOAD,2022-10-13 22:00:00,15.08838038,0.0002213,53.2175,353.1385,28.7892,199.1737,-0.0001413,-2.536e-05,0.0,0 STARLINK-4145,1 53137U 22083F   22286.91667824 -.00002536  00000-0 -14130-3 0  9997,2 53137  53.2175 353.1385 0002213  28.7892 199.1737 15.08838038  1301,6917.886,95.438,541.2819999999998,538.22,0.0
53137.0,STARLINK-4145,PAYLOAD,2022-10-14 14:00:01,15.08835932,0.0002195999999999,53.2179,350.151,28.257,222.888,0.00012377,1.682e-05,0.0,0 STARLINK-4145,1 53137U 22083F   22287.58334491  .00001682  00000-0  12377-3 0  9992,2 53137  53.2179 350.1510 0002196  28.2570 222.8880 15.08835932  1303,6917.893,95.438,541.2769999999998,538.239,0.0
53137.0,STARLINK-4145,PAYLOAD,2022-10-14 22:00:00,15.08828427,0.0002205,53.2179,348.6589,31.8206,230.9034,0.0014623,0.00023054,0.0,0 STARLINK-4145,1 53137U 22083F   22287.91667824  .00023054  00000-0  14623-2 0  9990,2 53137  53.2179 348.6589 0002205  31.8206 230.9034 15.08828427 14371,6917.916,95.438,541.306,538.255,0.0
53137.0,STARLINK-4145,PAYLOAD,2022-10-15 14:00:01,15.08824314,0.0002265,53.2184,345.6762,31.4229,254.5019,0.00026194,3.881e-05,0.0,0 STARLINK-4145,1 53137U 22083F   22288.58334491  .00003881  00000-0  26194-3 0  9998,2 53137  53.2184 345.6762 0002265  31.4229 254.5019 15.08824314  1309,6917.928000000001,95.439,541.36,538.226,0.0
53137.0,STARLINK-4145,PAYLOAD,2022-10-15 22:00:01,15.08819448,0.0002069,53.2183,344.1782,32.8529,264.715,0.00021442,3.124e-05,0.0,0 STARLINK-4145,1 53137U 22083F   22288.91668981  .00003124  00000-0  21442-3 0  9990,2 53137  53.2183 344.1782 0002069  32.8529 264.7150 15.08819448  1305,6917.943,95.439,541.24,538.377,0.0
53137.0,STARLINK-4145,PAYLOAD,2022-10-16 14:00:01,15.08791886,0.000235,53.2177,341.1854,33.9661,286.6773,0.0037599,0.00059982,0.0,0 STARLINK-4145,1 53137U 22083F   22289.58334491  .00059982  00000-0  37599-2 0  9992,2 53137  53.2177 341.1854 0002350  33.9661 286.6773 15.08791886  1306,6918.026999999999,95.441,541.518,538.2669999999998,0.0
53137.0,STARLINK-4145,PAYLOAD,2022-10-16 22:00:00,15.08813413,0.0002171999999999,53.2177,339.6894,37.0006,295.1949,0.001555,0.00024529,0.0,0 STARLINK-4145,1 53137U 22083F   22289.91667824  .00024529  00000-0  15550-2 0  9990,2 53137  53.2177 339.6894 0002172  37.0006 295.1949 15.08813413  1303,6917.962,95.439,541.3290000000002,538.3240000000002,0.0
53137.0,STARLINK-4145,PAYLOAD,2022-10-17 14:00:01,15.08838458,0.0002396,53.2177,336.6980000000001,35.0311,320.3582,0.003321,0.00052962,0.0,0 STARLINK-4145,1 53137U 22083F   22290.58334491  .00052962  00000-0  33210-2 0  9991,2 53137  53.2177 336.6980 0002396  35.0311 320.3582 15.08838458  1301,6917.885,95.438,541.408,538.0930000000002,0.0
53137.0,STARLINK-4145,PAYLOAD,2022-10-17 22:00:00,15.08838716,0.0002183,53.2177,335.1993,37.02,329.9735,0.00043527,6.646e-05,0.0,0 STARLINK-4145,1 53137U 22083F   22290.91667824  .00006646  00000-0  43527-3 0  9998,2 53137  53.2177 335.1993 0002183  37.0200 329.9735 15.08838716  1304,6917.884,95.438,541.259,538.239,0.0
53137.0,STARLINK-4145,PAYLOAD,2022-10-18 06:00:00,15.08837336,0.000221,53.2176,333.6951,38.4198,340.1742,0.0047564999999999,0.00076227,0.0,0 STARLINK-4145,1 53137U 22083F   22291.25001157  .00076227  00000-0  47565-2 0  9994,2 53137  53.2176 333.6951 0002210  38.4198 340.1742 15.08837336 14889,6917.889,95.438,541.2819999999998,538.225,0.0
53137.0,STARLINK-4145,PAYLOAD,2022-10-18 14:00:01,15.08834295,0.0002381999999999,53.2176,332.2093,32.9263,357.2688,0.00095611,0.00014959,0.0,0 STARLINK-4145,1 53137U 22083F   22291.58334491  .00014959  00000-0  95611-3 0  9990,2 53137  53.2176 332.2093 0002382  32.9263 357.2688 15.08834295 14938,6917.898,95.438,541.411,538.115,0.0
53137.0,STARLINK-4145,PAYLOAD,2022-10-18 22:00:00,15.08822162,0.0002189999999999,53.2177,330.7112,35.2052,6.5916,0.002435,0.0003866,0.0,0 STARLINK-4145,1 53137U 22083F   22291.91667824  .00038660  00000-0  24350-2 0  9992,2 53137  53.2177 330.7112 0002190  35.2052   6.5916 15.08822162  1308,6917.935,95.439,541.315,538.285,0.0
53137.0,STARLINK-4145,PAYLOAD,2022-10-19 14:00:01,15.08826833,0.000243,53.2177,327.7203,31.7253,33.2764,0.0017250999999999,0.00027264,0.0,0 STARLINK-4145,1 53137U 22083F   22292.58334491  .00027264  00000-0  17251-2 0  9997,2 53137  53.2177 327.7203 0002430  31.7253  33.2764 15.08826833  1303,6917.920999999999,95.438,541.467,538.105,0.0
53137.0,STARLINK-4145,PAYLOAD,2022-10-19 22:00:00,15.08835414,0.0002266,53.2175,326.2031,36.8555,39.7691,0.00014242,1.979e-05,0.0,0 STARLINK-4145,1 53137U 22083F   22292.91667824  .00001979  00000-0  14242-3 0  9996,2 53137  53.2175 326.2031 0002266  36.8555  39.7691 15.08835414  1307,6917.894,95.438,541.327,538.192,0.0
53137.0,STARLINK-4145,PAYLOAD,2022-10-20 06:00:00,15.08858297,0.0002316,53.2181,324.7266,34.1448,54.0507,-0.0025402,-0.0004051,0.0,0 STARLINK-4145,1 53137U 22083F   22293.25001157 -.00040510  00000-0 -25402-2 0  9990,2 53137  53.2181 324.7266 0002316  34.1448  54.0507 15.08858297 15186,6917.824000000001,95.436,541.2919999999998,538.087,0.0
53137.0,STARLINK-4145,PAYLOAD,2022-10-20 14:00:01,15.08823603,0.0002484,53.2177,323.2305,30.5345,69.2622,0.0028375,0.00045141,0.0,0 STARLINK-4145,1 53137U 22083F   22293.58334491  .00045141  00000-0  28375-2 0  9991,2 53137  53.2177 323.2305 0002484  30.5345  69.2622 15.08823603  1309,6917.931,95.439,541.514,538.077,0.0
53137.0,STARLINK-4145,PAYLOAD,2022-10-20 22:00:00,15.08832599,0.0002242,53.218,321.7312,33.2931,78.0893,0.00080223,0.000125,0.0,0 STARLINK-4145,1 53137U 22083F   22293.91667824  .00012500  00000-0  80223-3 0  9991,2 53137  53.2180 321.7312 0002242  33.2931  78.0893 15.08832599  1309,6917.903,95.438,541.319,538.217,0.0
53137.0,STARLINK-4145,PAYLOAD,2022-10-21 14:00:01,15.08828106,0.0002492,53.2177,318.7419,30.0695,104.505,0.0022379,0.00035497,0.0,0 STARLINK-4145,1 53137U 22083F   22294.58334491  .00035497  00000-0  22379-2 0  9993,2 53137  53.2177 318.7419 0002492  30.0695 104.5050 15.08828106  1307,6917.917,95.438,541.506,538.058,0.0
53137.0,STARLINK-4145,PAYLOAD,2022-10-21 22:00:00,15.08832849,0.0002269,53.218,317.2442,34.2703,111.8988,0.0014737,0.00023239,0.0,0 STARLINK-4145,1 53137U 22083F   22294.91667824  .00023239  00000-0  14737-2 0  9999,2 53137  53.2180 317.2442 0002269  34.2703 111.8988 15.08832849  1309,6917.901999999999,95.438,541.337,538.198,0.0
